STARLINK-2303           
1 47981U 21024E   26068.86949175 -.00026761  00000+0 -89650-3 0  9993
2 47981  53.1598 331.6170 0002126  54.6031 305.5168 15.30130194274652
AETHER-2                
1 58299U 23174AV  26068.71793741  .00008341  00000+0  26166-3 0  9990
2 58299  97.3931 151.9008 0008630 139.5247 220.6639 15.33264165129982
