[{"OBJECT_NAME":"STARLINK-2303","OBJECT_ID":"2021-024E","EPOCH":"2026-03-09T20:52:04.087200","MEAN_MOTION":15.30130194,"ECCENTRICITY":0.0002126,"INCLINATION":53.1598,"RA_OF_ASC_NODE":331.617,"ARG_OF_PERICENTER":54.6031,"MEAN_ANOMALY":305.5168,"EPHEMERIS_TYPE":0,"CLASSIFICATION_TYPE":"U","NORAD_CAT_ID":47981,"ELEMENT_SET_NO":999,"REV_AT_EPOCH":27465,"BSTAR":-0.00089649618,"MEAN_MOTION_DOT":-0.00026761,"MEAN_MOTION_DDOT":0},{"OBJECT_NAME":"AETHER-2","OBJECT_ID":"2023-174AV","EPOCH":"2026-03-09T17:13:49.792224","MEAN_MOTION":15.33264165,"ECCENTRICITY":0.00086301,"INCLINATION":97.3931,"RA_OF_ASC_NODE":151.9008,"ARG_OF_PERICENTER":139.5247,"MEAN_ANOMALY":220.6639,"EPHEMERIS_TYPE":0,"CLASSIFICATION_TYPE":"U","NORAD_CAT_ID":58299,"ELEMENT_SET_NO":999,"REV_AT_EPOCH":12998,"BSTAR":0.00026165949,"MEAN_MOTION_DOT":8.341e-5,"MEAN_MOTION_DDOT":0}]
